{"type": "FeatureCollection", "features": [ {"type": "Feature", "properties": {"norad_id": 36048, "name": "COSMOS 2251 DEB", "group": "cosmos-2251-debris", "lat": -0.7425406600387912, "lon": 96.41360393639654, "alt_km": 783.6875158373159, "timestamp": "2025-12-25T07:00:34.445301+00:00", "meta": {"OBJECT_NAME": "COSMOS 2251 DEB", "OBJECT_ID": "1993-036AXK", "EPOCH": "2025-12-24T12:37:11.140896", "MEAN_MOTION": 14.37871187, "ECCENTRICITY": 0.00270558, "INCLINATION": 74.0571, "RA_OF_ASC_NODE": 277.6099, "ARG_OF_PERICENTER": 325.359, "MEAN_ANOMALY": 210.757, "EPHEMERIS_TYPE": 0, "CLASSIFICATION_TYPE": "U", "NORAD_CAT_ID": 36048, "ELEMENT_SET_NO": 999, "REV_AT_EPOCH": 85671, "BSTAR": 0.00025785896, "MEAN_MOTION_DOT": 7.55e-06, "MEAN_MOTION_DDOT": 0}, "tle": {"line1": "1 36048U 93036AXK 25358.52582339  .00000755  00000+0  25786-3 0  9999", "line2": "2 36048  74.0571 277.6099 0027055 325.3590 210.7570 14.37871187856719"}}, "geometry": {"type": "Point", "coordinates": [96.41360393639654, -0.7425406600387912]}}, {"type": "Feature", "properties": {"norad_id": 36049, "name": "COSMOS 2251 DEB", "group": "cosmos-2251-debris", "lat": -50.43351229634611, "lon": 74.8621460501554, "alt_km": 696.1798305219454, "timestamp": "2025-12-25T07:00:34.445311+00:00", "meta": {"OBJECT_NAME": "COSMOS 2251 DEB", "OBJECT_ID": "1993-036AXL", "EPOCH": "2025-12-24T16:28:33.256992", "MEAN_MOTION": 14.62291602, "ECCENTRICITY": 0.00099539, "INCLINATION": 74.0314, "RA_OF_ASC_NODE": 96.2976, "ARG_OF_PERICENTER": 184.7355, "MEAN_ANOMALY": 175.3719, "EPHEMERIS_TYPE": 0, "CLASSIFICATION_TYPE": "U", "NORAD_CAT_ID": 36049, "ELEMENT_SET_NO": 999, "REV_AT_EPOCH": 85539, "BSTAR": 0.0013226671, "MEAN_MOTION_DOT": 6.656e-05, "MEAN_MOTION_DDOT": 0}, "tle": {"line1": "1 36049U 93036AXL 25358.68649603  .00006656  00000+0  13227-2 0  9997", "line2": "2 36049  74.0314  96.2976 0009953 184.7355 175.3719 14.62291602855397"}}, "geometry": {"type": "Point", "coordinates": [74.8621460501554, -50.43351229634611]}}, {"type": "Feature", "properties": {"norad_id": 36050, "name": "COSMOS 2251 DEB", "group": "cosmos-2251-debris", "lat": -24.029301160334075, "lon": 161.12304981419607, "alt_km": 567.6586069713294, "timestamp": "2025-12-25T07:00:34.445321+00:00", "meta": {"OBJECT_NAME": "COSMOS 2251 DEB", "OBJECT_ID": "1993-036AXM", "EPOCH": "2025-12-23T18:20:06.375552", "MEAN_MOTION": 15.01191833, "ECCENTRICITY": 0.00883826, "INCLINATION": 74.0302, "RA_OF_ASC_NODE": 171.57, "ARG_OF_PERICENTER": 248.7055, "MEAN_ANOMALY": 110.468, "EPHEMERIS_TYPE": 0, "CLASSIFICATION_TYPE": "U", "NORAD_CAT_ID": 36050, "ELEMENT_SET_NO": 999, "REV_AT_EPOCH": 67200, "BSTAR": 0.00066513085, "MEAN_MOTION_DOT": 9.246e-05, "MEAN_MOTION_DDOT": 0}, "tle": {"line1": "1 36050U 93036AXM 25357.76396268  .00009246  00000+0  66513-3 0  9998", "line2": "2 36050  74.0302 171.5700 0088382 248.7055 110.4680 15.01191833672000"}}, "geometry": {"type": "Point", "coordinates": [161.12304981419607, -24.029301160334075]}}, {"type": "Feature", "properties": {"norad_id": 36053, "name": "COSMOS 2251 DEB", "group": "cosmos-2251-debris", "lat": 56.767409759565204, "lon": 154.8088561233942, "alt_km": 673.6082183121634, "timestamp": "2025-12-25T07:00:34.445331+00:00", "meta": {"OBJECT_NAME": "COSMOS 2251 DEB", "OBJECT_ID": "1993-036AXQ", "EPOCH": "2025-12-24T02:43:33.726720", "MEAN_MOTION": 14.57309353, "ECCENTRICITY": 0.00324773, "INCLINATION": 73.8708, "RA_OF_ASC_NODE": 130.8593, "ARG_OF_PERICENTER": 76.0407, "MEAN_ANOMALY": 284.4365, "EPHEMERIS_TYPE": 0, "CLASSIFICATION_TYPE": "U", "NORAD_CAT_ID": 36053, "ELEMENT_SET_NO": 999, "REV_AT_EPOCH": 87610, "BSTAR": 0.0014302573, "MEAN_MOTION_DOT": 6.496e-05, "MEAN_MOTION_DDOT": 0}, "tle": {"line1": "1 36053U 93036AXQ 25358.11358480  .00006496  00000+0  14303-2 0  9998", "line2": "2 36053  73.8708 130.8593 0032477  76.0407 284.4365 14.57309353876102"}}, "geometry": {"type": "Point", "coordinates": [154.8088561233942, 56.767409759565204]}}, {"type": "Feature", "properties": {"norad_id": 36058, "name": "COSMOS 2251 DEB", "group": "cosmos-2251-debris", "lat": -67.25507684523686, "lon": -127.35165769413479, "alt_km": 716.2328018517874, "timestamp": "2025-12-25T07:00:34.445352+00:00", "meta": {"OBJECT_NAME": "COSMOS 2251 DEB", "OBJECT_ID": "1993-036AXV", "EPOCH": "2025-12-20T18:52:04.818432", "MEAN_MOTION": 14.58726339, "ECCENTRICITY": 0.00440828, "INCLINATION": 74.0229, "RA_OF_ASC_NODE": 18.1226, "ARG_OF_PERICENTER": 150.2394, "MEAN_ANOMALY": 210.1292, "EPHEMERIS_TYPE": 0, "CLASSIFICATION_TYPE": "U", "NORAD_CAT_ID": 36058, "ELEMENT_SET_NO": 999, "REV_AT_EPOCH": 66228, "BSTAR": 0.0002931852, "MEAN_MOTION_DOT": 1.357e-05, "MEAN_MOTION_DDOT": 0}, "tle": {"line1": "1 36058U 93036AXV 25354.78616688  .00001357  00000+0  29319-3 0  9994", "line2": "2 36058  74.0229  18.1226 0044082 150.2394 210.1292 14.58726339662289"}}, "geometry": {"type": "Point", "coordinates": [-127.35165769413479, -67.25507684523686]}}, {"type": "Feature", "properties": {"norad_id": 36060, "name": "COSMOS 2251 DEB", "group": "cosmos-2251-debris", "lat": 54.93268396442991, "lon": 7.208224406481811, "alt_km": 757.3349695730203, "timestamp": "2025-12-25T07:00:34.445363+00:00", "meta": {"OBJECT_NAME": "COSMOS 2251 DEB", "OBJECT_ID": "1993-036AXX", "EPOCH": "2025-12-24T20:27:25.953408", "MEAN_MOTION": 14.42023746, "ECCENTRICITY": 0.0015617, "INCLINATION": 74.0276, "RA_OF_ASC_NODE": 212.1036, "ARG_OF_PERICENTER": 307.841, "MEAN_ANOMALY": 52.1332, "EPHEMERIS_TYPE": 0, "CLASSIFICATION_TYPE": "U", "NORAD_CAT_ID": 36060, "ELEMENT_SET_NO": 999, "REV_AT_EPOCH": 85184, "BSTAR": 0.00026955178, "MEAN_MOTION_DOT": 8.59e-06, "MEAN_MOTION_DDOT": 0}, "tle": {"line1": "1 36060U 93036AXX 25358.85238372  .00000859  00000+0  26955-3 0  9998", "line2": "2 36060  74.0276 212.1036 0015617 307.8410  52.1332 14.42023746851846"}}, "geometry": {"type": "Point", "coordinates": [7.208224406481811, 54.93268396442991]}}, {"type": "Feature", "properties": {"norad_id": 36061, "name": "COSMOS 2251 DEB", "group": "cosmos-2251-debris", "lat": -65.93539669788267, "lon": -63.11764793137291, "alt_km": 804.0263198161238, "timestamp": "2025-12-25T07:00:34.445394+00:00", "meta": {"OBJECT_NAME": "COSMOS 2251 DEB", "OBJECT_ID": "1993-036AXY", "EPOCH": "2025-12-23T15:09:10.673856", "MEAN_MOTION": 14.33725339, "ECCENTRICITY": 0.00369201, "INCLINATION": 74.0242, "RA_OF_ASC_NODE": 339.8232, "ARG_OF_PERICENTER": 64.3412, "MEAN_ANOMALY": 296.1546, "EPHEMERIS_TYPE": 0, "CLASSIFICATION_TYPE": "U", "NORAD_CAT_ID": 36061, "ELEMENT_SET_NO": 999, "REV_AT_EPOCH": 65260, "BSTAR": 0.00028137212, "MEAN_MOTION_DOT": 7.61e-06, "MEAN_MOTION_DDOT": 0}, "tle": {"line1": "1 36061U 93036AXY 25357.63137354  .00000761  00000+0  28137-3 0  9998", "line2": "2 36061  74.0242 339.8232 0036920  64.3412 296.1546 14.33725339652609"}}, "geometry": {"type": "Point", "coordinates": [-63.11764793137291, -65.93539669788267]}}, {"type": "Feature", "properties": {"norad_id": 36073, "name": "COSMOS 2251 DEB", "group": "cosmos-2251-debris", "lat": 71.87945779988362, "lon": 0.5892169801287227, "alt_km": 764.0145133311107, "timestamp": "2025-12-25T07:00:34.445405+00:00", "meta": {"OBJECT_NAME": "COSMOS 2251 DEB", "OBJECT_ID": "1993-036AYL", "EPOCH": "2025-12-18T03:58:06.481920", "MEAN_MOTION": 14.34959898, "ECCENTRICITY": 0.00240895, "INCLINATION": 74.0326, "RA_OF_ASC_NODE": 312.6126, "ARG_OF_PERICENTER": 19.0207, "MEAN_ANOMALY": 341.1839, "EPHEMERIS_TYPE": 0, "CLASSIFICATION_TYPE": "U", "NORAD_CAT_ID": 36073, "ELEMENT_SET_NO": 999, "REV_AT_EPOCH": 70285, "BSTAR": 0.0001893667, "MEAN_MOTION_DOT": 5.14e-06, "MEAN_MOTION_DDOT": 0}, "tle": {"line1": "1 36073U 93036AYL 25352.16535280  .00000514  00000+0  18937-3 0  9997", "line2": "2 36073  74.0326 312.6126 0024089  19.0207 341.1839 14.34959898702857"}}, "geometry": {"type": "Point", "coordinates": [0.5892169801287227, 71.87945779988362]}}, {"type": "Feature", "properties": {"norad_id": 36074, "name": "COSMOS 2251 DEB", "group": "cosmos-2251-debris", "lat": -68.55779396975328, "lon": -175.95380699475157, "alt_km": 778.6509835631368, "timestamp": "2025-12-25T07:00:34.445416+00:00", "meta": {"OBJECT_NAME": "COSMOS 2251 DEB", "OBJECT_ID": "1993-036AYM", "EPOCH": "2025-12-22T22:57:11.517120", "MEAN_MOTION": 14.43796912, "ECCENTRICITY": 0.0041956, "INCLINATION": 73.994, "RA_OF_ASC_NODE": 321.4388, "ARG_OF_PERICENTER": 50.2945, "MEAN_ANOMALY": 310.1898, "EPHEMERIS_TYPE": 0, "CLASSIFICATION_TYPE": "U", "NORAD_CAT_ID": 36074, "ELEMENT_SET_NO": 999, "REV_AT_EPOCH": 86057, "BSTAR": 0.001160749, "MEAN_MOTION_DOT": 3.969e-05, "MEAN_MOTION_DDOT": 0}, "tle": {"line1": "1 36074U 93036AYM 25356.95638330  .00003969  00000+0  11607-2 0  9992", "line2": "2 36074  73.9940 321.4388 0041956  50.2945 310.1898 14.43796912860575"}}, "geometry": {"type": "Point", "coordinates": [-175.95380699475157, -68.55779396975328]}}, {"type": "Feature", "properties": {"norad_id": 36366, "name": "COSMOS 2251 DEB", "group": "cosmos-2251-debris", "lat": 73.10725883539243, "lon": -39.66517611507405, "alt_km": 836.0606859598729, "timestamp": "2025-12-25T07:00:34.445426+00:00", "meta": {"OBJECT_NAME": "COSMOS 2251 DEB", "OBJECT_ID": "1993-036AYT", "EPOCH": "2025-12-21T17:11:32.767008", "MEAN_MOTION": 14.33460542, "ECCENTRICITY": 0.00902396, "INCLINATION": 74.0657, "RA_OF_ASC_NODE": 256.6822, "ARG_OF_PERICENTER": 283.124, "MEAN_ANOMALY": 75.9853, "EPHEMERIS_TYPE": 0, "CLASSIFICATION_TYPE": "U", "NORAD_CAT_ID": 36366, "ELEMENT_SET_NO": 999, "REV_AT_EPOCH": 86417, "BSTAR": 0.0010533139, "MEAN_MOTION_DOT": 3.019e-05, "MEAN_MOTION_DDOT": 0}, "tle": {"line1": "1 36366U 93036AYT 25355.71635147  .00003019  00000+0  10533-2 0  9995", "line2": "2 36366  74.0657 256.6822 0090239 283.1240  75.9853 14.33460542864174"}}, "geometry": {"type": "Point", "coordinates": [-39.66517611507405, 73.10725883539243]}}]}